COMMENT,ORIGINATOR,NORAD_CAT_ID,OBJECT_NAME,OBJECT_TYPE,CLASSIFICATION_TYPE,INTLDES,EPOCH,EPOCH_MICROSECONDS,MEAN_MOTION,ECCENTRICITY,INCLINATION,RA_OF_ASC_NODE,ARG_OF_PERICENTER,MEAN_ANOMALY,EPHEMERIS_TYPE,ELEMENT_SET_NO,REV_AT_EPOCH,BSTAR,MEAN_MOTION_DOT,MEAN_MOTION_DDOT,FILE,TLE_LINE0,TLE_LINE1,TLE_LINE2,OBJECT_ID,OBJECT_NUMBER,SEMIMAJOR_AXIS,PERIOD,APOGEE,PERIGEE,DECAYED
"GENERATED VIA SPACETRACK.ORG API","18 SPCS","53903","STARLINK-5022","PAYLOAD","U","22119T","2022-10-18 14:00:01","224","15.73163302","0.0001332","53.2164","136.1155","94.4425","18.4793","0","999","130","-0.0000073848","-0.00001654","0","3621474","0 STARLINK-5022","1 53903U 22119T   22291.58334491 -.00001654  00000-0 -73848-5 0  9991","2 53903  53.2164 136.1155 0001332  94.4425  18.4793 15.73163302  1309","2022-119T","53903","6728.000","91.535","350.761","348.969","0"
"GENERATED VIA SPACETRACK.ORG API","18 SPCS","53903","STARLINK-5022","PAYLOAD","U","22119T","2022-10-18 22:00:00","999936","15.73204432","0.000154","53.2176","134.4458","88.5863","113.2665","0","999","130","0.00000073768","-0.00000517","0","3621750","0 STARLINK-5022","1 53903U 22119T   22291.91667824 -.00000517  00000-0  73768-6 0  9995","2 53903  53.2176 134.4458 0001540  88.5863 113.2665 15.73204432  1302","2022-119T","53903","6727.883","91.533","350.784","348.711","0"
"GENERATED VIA SPACETRACK.ORG API","18 SPCS","53903","STARLINK-5022","PAYLOAD","U","22119T","2022-10-19 04:00:00","999936","15.73207315","0.000129","53.2154","133.2307","84.3038","94.1754","0","999","424","0.00014929","0.00020389","0","3621803","0 STARLINK-5022","1 53903U 22119T   22292.16667824  .00020389  00000-0  14929-3 0  9992","2 53903  53.2154 133.2307 0001290  84.3038  94.1754 15.73207315  4243","2022-119T","53903","6727.874","91.533","350.607","348.871","0"
"GENERATED VIA SPACETRACK.ORG API","18 SPCS","53903","STARLINK-5022","PAYLOAD","U","22119T","2022-10-19 14:00:01","224","15.73251687","0.0001155","53.2159","131.1675","96.6965","282.9759","0","999","130","-0.00017999","-0.00025858","0","3623062","0 STARLINK-5022","1 53903U 22119T   22292.58334491 -.00025858  00000-0 -17999-3 0  9997","2 53903  53.2159 131.1675 0001155  96.6965 282.9759 15.73251687  1305","2022-119T","53903","6727.748","91.530","350.390","348.836","0"
"GENERATED VIA SPACETRACK.ORG API","18 SPCS","53903","STARLINK-5022","PAYLOAD","U","22119T","2022-10-19 22:00:00","999936","15.7321264","0.0001201","53.2165","129.5087","86.5861","22.0548","0","999","436","-0.000081268","-0.00012015","0","3623137","0 STARLINK-5022","1 53903U 22119T   22292.91667824 -.00012015  00000-0 -81268-4 0  9995","2 53903  53.2165 129.5087 0001201  86.5861  22.0548 15.73212640  4369","2022-119T","53903","6727.859","91.532","350.532","348.916","0"
"GENERATED VIA SPACETRACK.ORG API","18 SPCS","53903","STARLINK-5022","PAYLOAD","U","22119T","2022-10-20 06:00:00","999648","15.73255914","0.0001039","53.216","127.869","85.2445","112.3436","0","999","441","-0.000538","-0.00075627","0","3623955","0 STARLINK-5022","1 53903U 22119T   22293.25001157 -.00075627  00000-0 -53800-3 0  9992","2 53903  53.2160 127.8690 0001039  85.2445 112.3436 15.73255914  4414","2022-119T","53903","6727.736","91.530","350.300","348.902","0"
"GENERATED VIA SPACETRACK.ORG API","18 SPCS","53903","STARLINK-5022","PAYLOAD","U","22119T","2022-10-20 14:00:01","224","15.73188419","0.0000977","53.216","126.2191","89.5743","196.9675","0","999","130","0.00029277","0.00040647","0","3625892","0 STARLINK-5022","1 53903U 22119T   22293.58334491  .00040647  00000-0  29277-3 0  9991","2 53903  53.2160 126.2191 0000977  89.5743 196.9675 15.73188419  1304","2022-119T","53903","6727.928","91.534","350.451","349.136","0"
"GENERATED VIA SPACETRACK.ORG API","18 SPCS","53903","STARLINK-5022","PAYLOAD","U","22119T","2022-10-20 20:00:01","224","15.73224112","0.0001111","53.2156","124.9831","75.0958","188.1415","0","999","450","-0.00049183","-0.00069149","0","3625964","0 STARLINK-5022","1 53903U 22119T   22293.83334491 -.00069149  00000-0 -49183-3 0  9997","2 53903  53.2156 124.9831 0001111  75.0958 188.1415 15.73224112  4505","2022-119T","53903","6727.826","91.532","350.439","348.944","0"
"GENERATED VIA SPACETRACK.ORG API","18 SPCS","53903","STARLINK-5022","PAYLOAD","U","22119T","2022-10-20 22:00:00","999936","15.73184564","0.0001132","53.2158","124.5677","74.6783","300.8056","0","999","130","0.000022595","0.0000255","0","3626396","0 STARLINK-5022","1 53903U 22119T   22293.91667824  .00002550  00000-0  22595-4 0  9995","2 53903  53.2158 124.5677 0001132  74.6783 300.8056 15.73184564  1300","2022-119T","53903","6727.939","91.534","350.566","349.043","0"
"GENERATED VIA SPACETRACK.ORG API","18 SPCS","53903","STARLINK-5022","PAYLOAD","U","22119T","2022-10-21 04:00:00","999936","15.7319639","0.0001127","53.2151","123.3334","78.4587","273.7042","0","999","455","0.00017427","0.00023903","0","3626471","0 STARLINK-5022","1 53903U 22119T   22294.16667824  .00023903  00000-0  17427-3 0  9995","2 53903  53.2151 123.3334 0001127  78.4587 273.7042 15.73196390  4551","2022-119T","53903","6727.905","91.533","350.529","349.012","0"
"GENERATED VIA SPACETRACK.ORG API","18 SPCS","53903","STARLINK-5022","PAYLOAD","U","22119T","2022-10-21 14:00:01","224","15.73252964","0.0001196","53.2155","121.2704","88.3253","105.0265","0","999","130","-0.00030607","-0.0004345","0","3627579","0 STARLINK-5022","1 53903U 22119T   22294.58334491 -.00043450  00000-0 -30607-3 0  9998","2 53903  53.2155 121.2704 0001196  88.3253 105.0265 15.73252964  1303","2022-119T","53903","6727.744","91.530","350.414","348.805","0"
"GENERATED VIA SPACETRACK.ORG API","18 SPCS","53903","STARLINK-5022","PAYLOAD","U","22119T","2022-10-21 20:00:01","224","15.73216926","0.0001226","53.2151","120.035","75.6864","94.3729","0","999","466","-0.00039181","-0.00055287","0","3627742","0 STARLINK-5022","1 53903U 22119T   22294.83334491 -.00055287  00000-0 -39181-3 0  9993","2 53903  53.2151 120.0350 0001226  75.6864  94.3729 15.73216926  4669","2022-119T","53903","6727.847","91.532","350.537","348.887","0"
"GENERATED VIA SPACETRACK.ORG API","18 SPCS","53903","STARLINK-5022","PAYLOAD","U","22119T","2022-10-21 22:00:00","999936","15.73190376","0.0001195","53.2153","119.623","72.9835","209.3156","0","999","130","-0.000066172","-0.00009891","0","3628413","0 STARLINK-5022","1 53903U 22119T   22294.91667824 -.00009891  00000-0 -66172-4 0  9992","2 53903  53.2153 119.6230 0001195  72.9835 209.3156 15.73190376  1305","2022-119T","53903","6727.923","91.534","350.592","348.984","0"
"GENERATED VIA SPACETRACK.ORG API","18 SPCS","53903","STARLINK-5022","PAYLOAD","U","22119T","2022-10-22 04:00:00","999936","15.73186842","0.000099","53.2152","118.3846","72.5895","186.3931","0","999","471","0.00011944","0.00016166","0","3628473","0 STARLINK-5022","1 53903U 22119T   22295.16667824  .00016166  00000-0  11944-3 0  9997","2 53903  53.2152 118.3846 0000990  72.5895 186.3931 15.73186842  4713","2022-119T","53903","6727.933","91.534","350.464","349.132","0"
"GENERATED VIA SPACETRACK.ORG API","18 SPCS","53903","STARLINK-5022","PAYLOAD","U","22119T","2022-10-22 12:00:00","999648","15.73208309","0.0000953","53.2152","116.7339","79.9629","267.9361","0","999","476","0.0004992","0.0007005","0","3629252","0 STARLINK-5022","1 53903U 22119T   22295.50001157  .00070050  00000-0  49920-3 0  9993","2 53903  53.2152 116.7339 0000953  79.9629 267.9361 15.73208309  4768","2022-119T","53903","6727.871","91.533","350.378","349.095","0"
"GENERATED VIA SPACETRACK.ORG API","18 SPCS","53903","STARLINK-5022","PAYLOAD","U","22119T","2022-10-22 14:00:01","224","15.73249196","0.0000974","53.2153","116.3221","78.3464","21.7812","0","999","130","0.000006882","0.00000348","0","3629476","0 STARLINK-5022","1 53903U 22119T   22295.58334491  .00000348  00000-0  68820-5 0  9996","2 53903  53.2153 116.3221 0000974  78.3464  21.7812 15.73249196  1301","2022-119T","53903","6727.755","91.530","350.275","348.965","0"
"GENERATED VIA SPACETRACK.ORG API","18 SPCS","53903","STARLINK-5022","PAYLOAD","U","22119T","2022-10-22 22:00:00","999936","15.73221856","0.0000949","53.2148","114.6741","56.8216","132.3168","0","999","130","0.0004018","0.000562","0","3629797","0 STARLINK-5022","1 53903U 22119T   22295.91667824  .00056200  00000-0  40180-3 0  9997","2 53903  53.2148 114.6741 0000949  56.8216 132.3168 15.73221856  1307","2022-119T","53903","6727.833","91.532","350.336","349.059","0"
"GENERATED VIA SPACETRACK.ORG API","18 SPCS","53903","STARLINK-5022","PAYLOAD","U","22119T","2022-10-23 06:00:00","999648","15.73245065","0.0000913","53.2145","113.0226","68.2519","209.8826","0","999","488","0.00024321","0.00033716","0","3629842","0 STARLINK-5022","1 53903U 22119T   22296.25001157  .00033716  00000-0  24321-3 0  9992","2 53903  53.2145 113.0226 0000913  68.2519 209.8826 15.73245065  4884","2022-119T","53903","6727.767","91.531","350.246","349.017","0"
"GENERATED VIA SPACETRACK.ORG API","18 SPCS","53903","STARLINK-5022","PAYLOAD","U","22119T","2022-10-23 12:00:00","999648","15.73256727","0.000103","53.2146","111.7848","79.0594","175.7902","0","999","492","-0.00028632","-0.00040705","0","3630129","0 STARLINK-5022","1 53903U 22119T   22296.50001157 -.00040705  00000-0 -28632-3 0  9997","2 53903  53.2146 111.7848 0001030  79.0594 175.7902 15.73256727  4922","2022-119T","53903","6727.733","91.530","350.291","348.905","0"
"GENERATED VIA SPACETRACK.ORG API","18 SPCS","53903","STARLINK-5022","PAYLOAD","U","22119T","2022-10-23 14:00:01","224","15.73254546","0.0001059","53.2147","111.373","76.3292","290.7667","0","999","130","-0.00034416","-0.00048752","0","3630365","0 STARLINK-5022","1 53903U 22119T   22296.58334491 -.00048752  00000-0 -34416-3 0  9992","2 53903  53.2147 111.3730 0001059  76.3292 290.7667 15.73254546  1307","2022-119T","53903","6727.740","91.530","350.317","348.892","0"
